{"fetched_at":"2026-07-15T06:35:32.501Z","source":"https://celestrak.org/NORAD/elements/gp.php?GROUP=oneweb&FORMAT=JSON","constellation":"oneweb","records":[{"OBJECT_NAME":"ONEWEB-0311","OBJECT_ID":"2021-075Y","EPOCH":"2026-07-14T12:12:34.748928","CLASSIFICATION_TYPE":"U","MEAN_MOTION":13.17647636,"ECCENTRICITY":0.00017507,"INCLINATION":87.9141,"RA_OF_ASC_NODE":0.4273,"ARG_OF_PERICENTER":78.8647,"MEAN_ANOMALY":281.2682,"EPHEMERIS_TYPE":0,"NORAD_CAT_ID":49097,"ELEMENT_SET_NO":999,"REV_AT_EPOCH":23722,"BSTAR":-0.00010058855,"MEAN_MOTION_DOT":-2.6e-7,"MEAN_MOTION_DDOT":0},{"OBJECT_NAME":"ONEWEB-0312","OBJECT_ID":"2021-075Z","EPOCH":"2026-07-14T19:51:50.975712","CLASSIFICATION_TYPE":"U","MEAN_MOTION":13.17648194,"ECCENTRICITY":0.00020474,"INCLINATION":87.9143,"RA_OF_ASC_NODE":0.374,"ARG_OF_PERICENTER":86.0392,"MEAN_ANOMALY":274.0973,"EPHEMERIS_TYPE":0,"NORAD_CAT_ID":49098,"ELEMENT_SET_NO":999,"REV_AT_EPOCH":23724,"BSTAR":0.00017532949,"MEAN_MOTION_DOT":8.1e-7,"MEAN_MOTION_DDOT":0},{"OBJECT_NAME":"ONEWEB-0313","OBJECT_ID":"2021-075AA","EPOCH":"2026-07-14T21:48:16.467552","CLASSIFICATION_TYPE":"U","MEAN_MOTION":13.17649919,"ECCENTRICITY":0.00018462,"INCLINATION":87.9142,"RA_OF_ASC_NODE":0.3628,"ARG_OF_PERICENTER":88.7118,"MEAN_ANOMALY":271.4225,"EPHEMERIS_TYPE":0,"NORAD_CAT_ID":49099,"ELEMENT_SET_NO":999,"REV_AT_EPOCH":23724,"BSTAR":0.00001935038,"MEAN_MOTION_DOT":2e-7,"MEAN_MOTION_DDOT":0},{"OBJECT_NAME":"ONEWEB-0314","OBJECT_ID":"2021-075AB","EPOCH":"2026-07-14T20:59:52.250784","CLASSIFICATION_TYPE":"U","MEAN_MOTION":13.17651104,"ECCENTRICITY":0.00021902,"INCLINATION":87.9152,"RA_OF_ASC_NODE":0.3456,"ARG_OF_PERICENTER":85.8626,"MEAN_ANOMALY":274.2756,"EPHEMERIS_TYPE":0,"NORAD_CAT_ID":49100,"ELEMENT_SET_NO":999,"REV_AT_EPOCH":23721,"BSTAR":-0.00010346661,"MEAN_MOTION_DOT":-2.7e-7,"MEAN_MOTION_DDOT":0},{"OBJECT_NAME":"ONEWEB-0315","OBJECT_ID":"2021-075AC","EPOCH":"2026-07-14T19:21:09.834912","CLASSIFICATION_TYPE":"U","MEAN_MOTION":13.1244146,"ECCENTRICITY":0.00015906,"INCLINATION":87.897,"RA_OF_ASC_NODE":345.1535,"ARG_OF_PERICENTER":85.4804,"MEAN_ANOMALY":274.6506,"EPHEMERIS_TYPE":0,"NORAD_CAT_ID":49101,"ELEMENT_SET_NO":999,"REV_AT_EPOCH":23879,"BSTAR":0.00016186866,"MEAN_MOTION_DOT":7.1e-7,"MEAN_MOTION_DDOT":0},{"OBJECT_NAME":"ONEWEB-0316","OBJECT_ID":"2021-075AD","EPOCH":"2026-07-14T20:29:34.653120","CLASSIFICATION_TYPE":"U","MEAN_MOTION":13.18686653,"ECCENTRICITY":0.00019478,"INCLINATION":87.9192,"RA_OF_ASC_NODE":329.9537,"ARG_OF_PERICENTER":99.5131,"MEAN_ANOMALY":260.6221,"EPHEMERIS_TYPE":0,"NORAD_CAT_ID":49102,"ELEMENT_SET_NO":999,"REV_AT_EPOCH":24085,"BSTAR":0.000057155626,"MEAN_MOTION_DOT":3.5e-7,"MEAN_MOTION_DDOT":0},{"OBJECT_NAME":"ONEWEB-0317","OBJECT_ID":"2021-075AE","EPOCH":"2026-07-14T21:15:49.444416","CLASSIFICATION_TYPE":"U","MEAN_MOTION":13.12441502,"ECCENTRICITY":0.00024246,"INCLINATION":87.8964,"RA_OF_ASC_NODE":345.1612,"ARG_OF_PERICENTER":107.3685,"MEAN_ANOMALY":252.7709,"EPHEMERIS_TYPE":0,"NORAD_CAT_ID":49103,"ELEMENT_SET_NO":999,"REV_AT_EPOCH":23882,"BSTAR":-0.000066067678,"MEAN_MOTION_DOT":-1.1e-7,"MEAN_MOTION_DDOT":0},{"OBJECT_NAME":"ONEWEB-0318","OBJECT_ID":"2021-075AF","EPOCH":"2026-07-14T20:24:31.483296","CLASSIFICATION_TYPE":"U","MEAN_MOTION":13.18686664,"ECCENTRICITY":0.00017987,"INCLINATION":87.9195,"RA_OF_ASC_NODE":329.9567,"ARG_OF_PERICENTER":92.5049,"MEAN_ANOMALY":267.6289,"EPHEMERIS_TYPE":0,"NORAD_CAT_ID":49104,"ELEMENT_SET_NO":999,"REV_AT_EPOCH":24081,"BSTAR":-0.000004805484,"MEAN_MOTION_DOT":1.1e-7,"MEAN_MOTION_DDOT":0},{"OBJECT_NAME":"ONEWEB-0319","OBJECT_ID":"2021-075AG","EPOCH":"2026-07-14T21:21:44.808480","CLASSIFICATION_TYPE":"U","MEAN_MOTION":13.17647706,"ECCENTRICITY":0.00015382,"INCLINATION":87.9144,"RA_OF_ASC_NODE":0.3566,"ARG_OF_PERICENTER":78.5136,"MEAN_ANOMALY":281.6168,"EPHEMERIS_TYPE":0,"NORAD_CAT_ID":49105,"ELEMENT_SET_NO":999,"REV_AT_EPOCH":23725,"BSTAR":0.000097062886,"MEAN_MOTION_DOT":5.1e-7,"MEAN_MOTION_DDOT":0},{"OBJECT_NAME":"ONEWEB-0323","OBJECT_ID":"2021-075AH","EPOCH":"2026-07-14T22:38:46.679712","CLASSIFICATION_TYPE":"U","MEAN_MOTION":13.12442537,"ECCENTRICITY":0.00016663,"INCLINATION":87.8971,"RA_OF_ASC_NODE":345.1315,"ARG_OF_PERICENTER":77.9757,"MEAN_ANOMALY":282.1559,"EPHEMERIS_TYPE":0,"NORAD_CAT_ID":49106,"ELEMENT_SET_NO":999,"REV_AT_EPOCH":23819,"BSTAR":0.001170032,"MEAN_MOTION_DOT":0.00000434,"MEAN_MOTION_DDOT":0},{"OBJECT_NAME":"ONEWEB-0329","OBJECT_ID":"2021-075AJ","EPOCH":"2026-07-14T21:33:52.978176","CLASSIFICATION_TYPE":"U","MEAN_MOTION":13.17650774,"ECCENTRICITY":0.00019173,"INCLINATION":87.9146,"RA_OF_ASC_NODE":0.3555,"ARG_OF_PERICENTER":88.3338,"MEAN_ANOMALY":271.8013,"EPHEMERIS_TYPE":0,"NORAD_CAT_ID":49107,"ELEMENT_SET_NO":999,"REV_AT_EPOCH":23723,"BSTAR":0.000030374041,"MEAN_MOTION_DOT":2.5e-7,"MEAN_MOTION_DDOT":0},{"OBJECT_NAME":"ONEWEB-0330","OBJECT_ID":"2021-075AK","EPOCH":"2026-07-14T21:38:56.071104","CLASSIFICATION_TYPE":"U","MEAN_MOTION":13.17646664,"ECCENTRICITY":0.00020163,"INCLINATION":87.9146,"RA_OF_ASC_NODE":0.366,"ARG_OF_PERICENTER":90.0729,"MEAN_ANOMALY":270.0634,"EPHEMERIS_TYPE":0,"NORAD_CAT_ID":49108,"ELEMENT_SET_NO":999,"REV_AT_EPOCH":23727,"BSTAR":-0.000004534099,"MEAN_MOTION_DOT":1.1e-7,"MEAN_MOTION_DDOT":0},{"OBJECT_NAME":"ONEWEB-0292","OBJECT_ID":"2021-083A","EPOCH":"2026-07-14T21:27:38.491200","CLASSIFICATION_TYPE":"U","MEAN_MOTION":13.13470567,"ECCENTRICITY":0.00018096,"INCLINATION":87.8979,"RA_OF_ASC_NODE":314.7236,"ARG_OF_PERICENTER":97.2487,"MEAN_ANOMALY":262.8848,"EPHEMERIS_TYPE":0,"NORAD_CAT_ID":49186,"ELEMENT_SET_NO":999,"REV_AT_EPOCH":23456,"BSTAR":-0.00063924221,"MEAN_MOTION_DOT":-0.00000221,"MEAN_MOTION_DDOT":0},{"OBJECT_NAME":"ONEWEB-0303","OBJECT_ID":"2021-083B","EPOCH":"2026-07-14T20:19:39.154080","CLASSIFICATION_TYPE":"U","MEAN_MOTION":13.18684362,"ECCENTRICITY":0.00018148,"INCLINATION":87.9194,"RA_OF_ASC_NODE":329.9555,"ARG_OF_PERICENTER":93.1961,"MEAN_ANOMALY":266.9379,"EPHEMERIS_TYPE":0,"NORAD_CAT_ID":49187,"ELEMENT_SET_NO":999,"REV_AT_EPOCH":23362,"BSTAR":-0.00016121955,"MEAN_MOTION_DOT":-5.1e-7,"MEAN_MOTION_DDOT":0},{"OBJECT_NAME":"ONEWEB-0306","OBJECT_ID":"2021-083C","EPOCH":"2026-07-14T21:54:21.691584","CLASSIFICATION_TYPE":"U","MEAN_MOTION":13.18684452,"ECCENTRICITY":0.00021109,"INCLINATION":87.9199,"RA_OF_ASC_NODE":329.9318,"ARG_OF_PERICENTER":101.9383,"MEAN_ANOMALY":258.1986,"EPHEMERIS_TYPE":0,"NORAD_CAT_ID":49188,"ELEMENT_SET_NO":999,"REV_AT_EPOCH":23367,"BSTAR":-0.00020109519,"MEAN_MOTION_DOT":-6.6e-7,"MEAN_MOTION_DDOT":0},{"OBJECT_NAME":"ONEWEB-0307","OBJECT_ID":"2021-083D","EPOCH":"2026-07-14T21:19:06.070080","CLASSIFICATION_TYPE":"U","MEAN_MOTION":13.13467929,"ECCENTRICITY":0.00019182,"INCLINATION":87.8979,"RA_OF_ASC_NODE":314.7226,"ARG_OF_PERICENTER":96.5874,"MEAN_ANOMALY":263.5473,"EPHEMERIS_TYPE":0,"NORAD_CAT_ID":49189,"ELEMENT_SET_NO":999,"REV_AT_EPOCH":23456,"BSTAR":-0.00080031645,"MEAN_MOTION_DOT":-0.00000279,"MEAN_MOTION_DDOT":0}]}
