ONEWEB-0311             
1 49097U 21075Y   26195.50873552 -.00000026  00000+0 -10059-3 0  9999
2 49097  87.9141   0.4273 0001750  78.8647 281.2682 13.17647636237229
ONEWEB-0312             
1 49098U 21075Z   26195.82767333  .00000081  00000+0  17533-3 0  9997
2 49098  87.9143   0.3740 0002047  86.0392 274.0973 13.17648194237243
ONEWEB-0313             
1 49099U 21075AA  26195.90852393  .00000020  00000+0  19350-4 0  9991
2 49099  87.9142   0.3628 0001846  88.7118 271.4225 13.17649919237246
ONEWEB-0314             
1 49100U 21075AB  26195.87491031 -.00000027  00000+0 -10347-3 0  9993
2 49100  87.9152   0.3456 0002190  85.8626 274.2756 13.17651104237210
ONEWEB-0315             
1 49101U 21075AC  26195.80636383  .00000071  00000+0  16187-3 0  9993
2 49101  87.8970 345.1535 0001590  85.4804 274.6506 13.12441460238791
ONEWEB-0316             
1 49102U 21075AD  26195.85387330  .00000035  00000+0  57156-4 0  9996
2 49102  87.9192 329.9537 0001947  99.5131 260.6221 13.18686653240856
ONEWEB-0317             
1 49103U 21075AE  26195.88598894 -.00000011  00000+0 -66068-4 0  9997
2 49103  87.8964 345.1612 0002424 107.3685 252.7709 13.12441502238823
ONEWEB-0318             
1 49104U 21075AF  26195.85036439  .00000011  00000+0 -48055-5 0  9993
2 49104  87.9195 329.9567 0001798  92.5049 267.6289 13.18686664240818
ONEWEB-0319             
1 49105U 21075AG  26195.89010195  .00000051  00000+0  97063-4 0  9994
2 49105  87.9144   0.3566 0001538  78.5136 281.6168 13.17647706237254
ONEWEB-0323             
1 49106U 21075AH  26195.94359583  .00000434  00000+0  11700-2 0  9995
2 49106  87.8971 345.1315 0001666  77.9757 282.1559 13.12442537238192
ONEWEB-0329             
1 49107U 21075AJ  26195.89852984  .00000025  00000+0  30374-4 0  9999
2 49107  87.9146   0.3555 0001917  88.3338 271.8013 13.17650774237237
ONEWEB-0330             
1 49108U 21075AK  26195.90203786  .00000011  00000+0 -45341-5 0  9999
2 49108  87.9146   0.3660 0002016  90.0729 270.0634 13.17646664237277
ONEWEB-0292             
1 49186U 21083A   26195.89419550 -.00000221  00000+0 -63924-3 0  9999
2 49186  87.8979 314.7236 0001809  97.2487 262.8848 13.13470567234564
ONEWEB-0303             
1 49187U 21083B   26195.84698095 -.00000051  00000+0 -16122-3 0  9997
2 49187  87.9194 329.9555 0001814  93.1961 266.9379 13.18684362233620
ONEWEB-0306             
1 49188U 21083C   26195.91275106 -.00000066  00000+0 -20110-3 0  9998
2 49188  87.9199 329.9318 0002110 101.9383 258.1986 13.18684452233671
ONEWEB-0307             
1 49189U 21083D   26195.88826470 -.00000279  00000+0 -80032-3 0  9996
2 49189  87.8979 314.7226 0001918  96.5874 263.5473 13.13467929234569
